{"type":"FeatureCollection","features":[{"type":"Feature","properties":{"name":"Thailand"},"geometry":{"type":"MultiLineString","coordinates":[[[100.02502113010698,12.39448029475297],[100.01873253784456,12.307001044153354],[99.47892052612363,10.846366685423547],[99.15377241414316,9.963061428258555],[99.16671908324665,9.826512090308253]],[[98.37768673185869,9.36006705374415],[98.55355065307305,9.932959906448545],[99.03812055867398,10.960545762572437],[99.58728600463972,11.892762762901697],[99.19635379435167,12.80474843998867],[99.21201175333609,13.269293728076464],[99.09775516153876,13.827502549693278],[98.43081912637987,14.622027696180837],[98.1920740091914,15.123702500870351],[98.53737592976572,15.308497422746084],[98.90334842325676,16.17782420497612],[98.49376102091135,16.83783559820793],[97.85912275593486,17.567946071843664],[97.37589643757354,18.445437730375815],[97.79778283080441,18.627080389881755],[98.25372399291561,19.708203029860044],[98.95967573445488,19.752980658440947],[99.54330936075931,20.186597601802063],[100.11598758341785,20.417849636308187],[100.54888105672688,20.109237982661128],[100.5580749645359,20.01301227608754]]]}},{"type":"Feature","properties":{"name":"Laos"},"geometry":{"type":"LineString","coordinates":[[100.5580749645359,20.01301227608754],[100.54888105672688,20.109237982661128],[100.11598758341785,20.417849636308187],[100.32910119018953,20.786121731036232],[101.18000532430754,21.436572984294028],[101.27002566935997,21.201651923095184],[101.72113382128823,21.178563021949568]]}},{"type":"Feature","properties":{"name":"India"},"geometry":{"type":"LineString","coordinates":[[97.32711388549004,28.26158274994634],[97.40256147663614,27.882536119085444],[97.0519885599681,27.69905894623315],[97.1339990580153,27.083773505149964],[96.41936567585097,27.264589341739224],[95.12476769407496,26.5735720891323],[95.1551534362626,26.001307277932085],[94.60324913938538,25.162495428970402],[94.55265791217164,24.675238348890336],[94.10674197792507,23.85074087167348],[93.3251876159428,24.078556423432204],[93.28632693885928,23.043658352139005],[93.06029422401463,22.70311066333557],[93.16612755734837,22.278459580977103],[92.67272098182556,22.041238918541254],[92.46085516654308,22.679330859859075]]}},{"type":"Feature","properties":{"name":"Bangladesh"},"geometry":{"type":"LineString","coordinates":[[92.67272098182556,22.041238918541254],[92.65225711463799,21.324047552978485],[92.30323449093868,21.47548533780982],[92.36855350135562,20.670883287025347],[92.08288618364614,21.19219513598577],[92.02521528520839,21.701569729086767],[91.92916615002487,21.94449606474642]]}},{"type":"Feature","properties":{"name":"China"},"geometry":{"type":"LineString","coordinates":[[101.72113382128823,21.178563021949568],[101.27002566935997,21.201651923095184],[101.18000532430754,21.436572984294028],[101.15003299357825,21.849984442629022],[100.41653771362738,21.558839423096614],[99.98348921102149,21.7429367131364],[99.24089887898725,22.11831431730458],[99.5319922220874,22.94903880461258],[98.89874922078278,23.14272207284253],[98.66026248575577,24.063286037689966],[97.60471967976198,23.897404690033042],[97.72460900267914,25.083637193293],[98.67183800658916,25.918702500913525],[98.71209394734451,26.743535874940267],[98.68269005737046,27.50881216075062],[98.2462309102333,27.74722138112918],[97.91198774616944,28.335945136014345],[97.32711388549004,28.26158274994634],[96.73348309827094,28.34385919184405]]}}]}